      2.10          N: GNSS NAV DATA                        RINEX VERSION / TYPE
fic2rin                                 03/04/2021 00:17:22 PGM / RUN BY / DATE
                                                            END OF HEADER
 4 21  3  3  6  0  0.0-1.838314346969e-04-2.387423592154e-12 0.000000000000e+00
    1.560000000000e+02-4.750000000000e+01 4.461257257843e-09-2.431852464416e-01
   -2.700835466385e-06 1.092919381335e-03 1.036562025547e-05 5.153776256561e+03
    2.808000000000e+05-1.862645149231e-09 1.837802935412e-01 5.774199962616e-08
    9.608098457695e-01 1.790312500000e+02-3.024376614591e+00-8.004976296537e-09
   -5.496657529278e-10 1.000000000000e+00 2.147000000000e+03 0.000000000000e+00
    6.850000000000e+00 0.000000000000e+00-4.190951585770e-09 9.240000000000e+02
    2.736000000000e+05 4.000000000000e+00
 9 21  3  3  6  0  0.0-3.277799114585e-04-3.296918293927e-12 0.000000000000e+00
    5.500000000000e+01-4.712500000000e+01 4.696981362413e-09 6.675819520165e-01
   -2.574175596237e-06 1.901727751829e-03 1.008436083794e-05 5.153557458878e+03
    2.808000000000e+05-1.117587089539e-08 1.336548933428e-01 3.725290298462e-08
    9.536361943639e-01 1.808437500000e+02 1.818792233048e+00-8.138910446860e-09
   -5.357366012941e-10 1.000000000000e+00 2.147000000000e+03 0.000000000000e+00
    2.400000000000e+00 0.000000000000e+00 1.396983861923e-09 5.500000000000e+01
    2.736000000000e+05 4.000000000000e+00
22 21  3  3  6  0  0.0-6.683943793178e-04 7.844391802792e-12 0.000000000000e+00
    1.000000000000e+01 1.075000000000e+01 5.748810889620e-09-7.984961297803e-01
    6.463378667831e-07 7.011521491222e-03 4.447996616364e-06 5.153585149765e+03
    2.808000000000e+05-4.097819328308e-08-9.927409835553e-01-5.587935447693e-08
    9.336975016201e-01 2.798437500000e+02-1.027628966974e+00-8.922514515687e-09
    2.239378993409e-10 1.000000000000e+00 2.147000000000e+03 0.000000000000e+00
    2.400000000000e+00 0.000000000000e+00-1.816079020500e-08 1.000000000000e+01
    2.736000000000e+05 4.000000000000e+00
16 21  3  3  6  0  0.0-2.882410772145e-04-5.798028723802e-12 0.000000000000e+00
    7.400000000000e+01 1.715625000000e+01 4.486615456971e-09 1.122095558984e+00
    1.000240445137e-06 1.223932951689e-02 3.736466169357e-06 5.153656595230e+03
    2.808000000000e+05-9.872019290924e-08 2.335193240549e+00 1.098960638046e-07
    9.745996217233e-01 3.163437500000e+02 6.580964438556e-01-8.442851678661e-09
   -1.303625729816e-10 1.000000000000e+00 2.147000000000e+03 0.000000000000e+00
    2.400000000000e+00 0.000000000000e+00-1.024454832077e-08 7.400000000000e+01
    2.736000000000e+05 4.000000000000e+00
12 21  3  3  6  0  0.0-8.614733815193e-06-5.229594535194e-12 0.000000000000e+00
    6.600000000000e+01 2.393750000000e+01 4.474829251743e-09 3.011763204712e+00
    1.216307282448e-06 8.446049410850e-03 3.291293978691e-06 5.153782773972e+03
    2.808000000000e+05 1.490116119385e-08 2.316403854284e+00-8.009374141693e-08
    9.744749035683e-01 3.217812500000e+02 1.177612899253e+00-8.233557246422e-09
    6.821712723145e-11 1.000000000000e+00 2.147000000000e+03 0.000000000000e+00
    2.400000000000e+00 0.000000000000e+00-1.257285475731e-08 6.600000000000e+01
    2.736000000000e+05 4.000000000000e+00
10 21  3  3  6  0  0.0-7.300311699510e-05-8.071765478235e-12 0.000000000000e+00
    1.030000000000e+02-2.812500000000e-01 4.843416033433e-09 2.253554330566e+00
   -4.656612873077e-08 6.515390356071e-03 5.051493644714e-06 5.153667154312e+03
    2.808000000000e+05-2.067536115646e-07-8.991907195427e-01-6.332993507385e-08
    9.682096204227e-01 2.888750000000e+02-2.581235254398e+00-8.284987960147e-09
    1.403629895391e-10 1.000000000000e+00 2.147000000000e+03 0.000000000000e+00
    2.400000000000e+00 0.000000000000e+00 2.328306436539e-09 1.030000000000e+02
    2.736000000000e+05 4.000000000000e+00
15 21  3  3  6  0  0.0-1.657279208302e-04 2.614797267597e-12 0.000000000000e+00
    1.370000000000e+02-5.675000000000e+01 5.493800267404e-09-7.574220816928e-01
   -2.890825271606e-06 1.306126324926e-02 8.750706911087e-06 5.153571250916e+03
    2.808000000000e+05 3.725290298462e-08 3.689637976232e-02 2.477318048477e-07
    9.292518925341e-01 1.930312500000e+02 9.690137864909e-01-8.724291973208e-09
   -5.768097407267e-10 1.000000000000e+00 2.147000000000e+03 0.000000000000e+00
    2.400000000000e+00 0.000000000000e+00-1.071020960808e-08 1.370000000000e+02
    2.736000000000e+05 4.000000000000e+00
31 21  3  3  6  0  0.0-1.033204607666e-04-2.273736754432e-12 0.000000000000e+00
    3.900000000000e+01 7.787500000000e+01 4.437327689652e-09-3.098272015374e+00
    3.969296813011e-06 9.974551736377e-03 1.058354973793e-05 5.153752408981e+03
    2.808000000000e+05-8.381903171539e-08 1.222994723211e+00-5.401670932770e-08
    9.561615289028e-01 1.744375000000e+02 2.502574693481e-01-7.937473484774e-09
    1.832219176426e-10 1.000000000000e+00 2.147000000000e+03 0.000000000000e+00
    2.400000000000e+00 0.000000000000e+00-1.303851604462e-08 3.900000000000e+01
    2.736000000000e+05 4.000000000000e+00
29 21  3  3  6  0  0.0-3.049108199775e-04-6.934897101019e-12 0.000000000000e+00
    1.040000000000e+02-7.862500000000e+01 3.911591504916e-09 3.459159650856e-01
   -4.122033715248e-06 1.567690400407e-03 8.989125490189e-06 5.153679847717e+03
    2.808000000000e+05 5.401670932770e-08-2.919216158716e+00-3.539025783539e-08
    9.848093504052e-01 2.167187500000e+02 2.126853090620e+00-7.904614973228e-09
   -2.439387324559e-10 1.000000000000e+00 2.147000000000e+03 0.000000000000e+00
    3.400000000000e+00 0.000000000000e+00-1.024454832077e-08 1.040000000000e+02
    2.736000000000e+05 4.000000000000e+00
27 21  3  3  6  0  0.0-8.676387369633e-05-7.275957614183e-12 0.000000000000e+00
    6.700000000000e+01-6.571875000000e+01 4.151601502295e-09 2.020146135767e-01
   -3.449618816376e-06 9.177175001241e-03 8.331611752510e-06 5.153681488037e+03
    2.808000000000e+05 4.284083843231e-08-2.991627411553e+00 8.940696716309e-08
    9.768635562082e-01 2.294687500000e+02 5.826019814482e-01-8.118195298277e-09
   -2.650110387735e-10 1.000000000000e+00 2.147000000000e+03 0.000000000000e+00
    2.400000000000e+00 0.000000000000e+00 1.862645149231e-09 6.700000000000e+01
    2.736000000000e+05 4.000000000000e+00
30 21  3  3  6  0  0.0-3.928351216018e-04-5.570655048359e-12 0.000000000000e+00
    6.900000000000e+01 1.054062500000e+02 4.789128057835e-09-2.669941880036e+00
    5.297362804413e-06 4.895955673419e-03 1.089088618755e-05 5.153748184204e+03
    2.808000000000e+05-1.862645149231e-09 1.224730371645e+00 1.862645149231e-09
    9.370578259111e-01 1.575937500000e+02-2.839927455886e+00-8.184626636837e-09
    2.510818871398e-10 1.000000000000e+00 2.147000000000e+03 0.000000000000e+00
    2.400000000000e+00 0.000000000000e+00 3.725290298462e-09 6.900000000000e+01
    2.736000000000e+05 4.000000000000e+00
19 21  3  3  6  0  0.0-3.136554732919e-05 5.002220859751e-12 0.000000000000e+00
    7.700000000000e+01-8.415625000000e+01 3.977308528008e-09 2.693393792491e+00
   -4.488974809647e-06 9.065229562111e-03 1.007132232189e-05 5.153628095627e+03
    2.808000000000e+05 1.769512891769e-07-2.886272201782e+00-1.862645149231e-09
    9.814433324371e-01 1.937500000000e+02 1.787069310930e+00-7.772466611575e-09
   -3.221562762449e-10 1.000000000000e+00 2.147000000000e+03 0.000000000000e+00
    3.400000000000e+00 0.000000000000e+00-1.583248376846e-08 7.700000000000e+01
    2.736000000000e+05 4.000000000000e+00
24 21  3  3  6  0  0.0 1.601874828339e-06-5.684341886081e-13 0.000000000000e+00
    4.100000000000e+01 7.728125000000e+01 4.785913638228e-09-1.627457984992e+00
    3.967434167862e-06 1.094170811120e-02 1.155026257038e-05 5.153620145798e+03
    2.808000000000e+05 1.825392246246e-07 1.129402491004e+00-1.881271600723e-07
    9.352647272214e-01 1.425000000000e+02 7.324713643153e-01-8.106051935314e-09
    1.564350875779e-10 1.000000000000e+00 2.147000000000e+03 0.000000000000e+00
    2.400000000000e+00 0.000000000000e+00 2.793967723846e-09 4.100000000000e+01
    2.736000000000e+05 4.000000000000e+00
32 21  3  3  6  0  0.0 2.034986391664e-05 9.094947017729e-13 0.000000000000e+00
    4.200000000000e+01-5.271875000000e+01 4.683766526247e-09 9.450955952308e-01
   -2.617016434669e-06 4.653552779928e-03 9.767711162567e-06 5.153645206451e+03
    2.808000000000e+05-6.519258022308e-08 1.433134515462e-01 2.048909664154e-08
    9.576466365235e-01 1.917812500000e+02-2.422509802891e+00-8.189269687382e-09
   -5.571660653459e-10 1.000000000000e+00 2.147000000000e+03 0.000000000000e+00
    2.400000000000e+00 0.000000000000e+00 4.656612873077e-10 4.200000000000e+01
    2.736000000000e+05 4.000000000000e+00
23 21  3  3  6  0  0.0 1.181927509606e-04-4.547473508865e-13 0.000000000000e+00
    5.200000000000e+01 3.718750000000e+00 4.953777773300e-09-2.312746222615e+00
    2.272427082062e-07 1.069363555871e-03 5.107372999191e-06 5.153640459061e+03
    2.808000000000e+05-4.842877388000e-08-9.222232719010e-01-5.587935447693e-09
    9.631619444753e-01 2.829687500000e+02 2.481073610080e+00-8.347133405897e-09
    1.317912039184e-10 1.000000000000e+00 2.147000000000e+03 0.000000000000e+00
    2.400000000000e+00 0.000000000000e+00-8.381903171539e-09 5.200000000000e+01
    2.736000000000e+05 4.000000000000e+00
21 21  3  3  6  0  0.0 1.000617630780e-04 3.069544618484e-12 0.000000000000e+00
    5.000000000000e+01 1.243750000000e+01 4.784127849557e-09 4.053289157592e-01
    4.433095455170e-07 2.427417936269e-02 1.102499663830e-05 5.153712362289e+03
    2.808000000000e+05-1.657754182816e-07-2.016498109617e+00-3.371387720108e-07
    9.561747200351e-01 1.738125000000e+02-1.180345859903e+00-8.557142153604e-09
    3.085842823454e-10 1.000000000000e+00 2.147000000000e+03 0.000000000000e+00
    2.400000000000e+00 0.000000000000e+00-1.024454832077e-08 5.000000000000e+01
    2.736000000000e+05 4.000000000000e+00
